0 GOES 9
1 23581U 95025A   13281.62610725 -.00000234  00000-0  10000-3 0   247
2 23581 008.8131 051.8884 0006692 056.2689 303.8173 00.98803239 66981
0 GOES 9
1 23581U 95025A   13282.63816701 -.00000255  00000-0  10000-3 0   255
2 23581 008.8151 051.8769 0006668 056.5240 303.5599 00.98803309 66992
0 GOES 9
1 23581U 95025A   13282.63816719 -.00000255  00000-0  10000-3 0   265
2 23581 008.8151 051.8767 0006652 056.6865 303.3969 00.98803299 66994
0 GOES 9
1 23581U 95025A   13282.63816719 -.00000255  00000-0  10000-3 0   276
2 23581 008.8151 051.8767 0006652 056.6865 303.3969 00.98803299 66994
0 GOES 9
1 23581U 95025A   13283.65025066  .00000000  00000-0  10000-3 0   262
2 23581 008.8177 051.8634 0006148 059.5572 300.5305 00.98799043 67009
0 GOES 9
1 23581U 95025A   13284.66231700 -.00000279  00000-0  10000-3 0   289
2 23581 008.8188 051.8546 0006603 056.9323 303.1550 00.98803142 67012
0 GOES 9
1 23581U 95025A   13284.66231700 -.00000279  00000-0  10000-3 0   290
2 23581 008.8188 051.8546 0006603 056.9323 303.1550 00.98803142 67012
0 GOES 9
1 23581U 95025A   13284.66231803 -.00000279  00000-0  10000-3 0   306
2 23581 008.8189 051.8546 0006606 056.9807 303.1067 00.98803139 67012
0 GOES 9
1 23581U 95025A   13286.68646206 -.00000277  00000-0  10000-3 0   327
2 23581 008.8227 051.8321 0006464 056.9195 303.1677 00.98802643 67036
0 GOES 9
1 23581U 95025A   13286.68646248 -.00000277  00000-0  10000-3 0   312
2 23581 008.8226 051.8322 0006459 056.9147 303.1730 00.98802652 67037
0 GOES 9
1 23581U 95025A   13287.69852461 -.00000266  00000-0  10000-3 0   330
2 23581 008.8245 051.8209 0006442 057.3901 302.6917 00.98802269 67043
0 GOES 9
1 23581U 95025A   13288.71058186 -.00000249  00000-0  10000-3 0   348
2 23581 008.8264 051.8098 0006446 057.5409 302.5328 00.98801837 67055
0 GOES 9
1 23581U 95025A   13290.73467337  .00000000  00000-0  10000-3 0   350
2 23581 008.8275 051.7878 0005909 051.4770 308.5701 00.98797448 67063
0 GOES 9
1 23581U 95025A   13290.73468395 -.00000200  00000-0  10000-3 0   369
2 23581 008.8302 051.7875 0006383 057.9368 302.1124 00.98800875 67071
0 GOES 9
1 23581U 95025A   13291.74674120 -.00000169  00000-0  10000-3 0   371
2 23581 008.8321 051.7759 0006370 058.3393 301.6984 00.98800379 67080
0 GOES 9
1 23581U 95025A   13292.75881374 -.00000137  00000-0  10000-3 0   380
2 23581 008.8340 051.7651 0006130 059.8122 300.2094 00.98799819 67096
0 GOES 9
1 23581U 95025A   13292.75881374 -.00000137  00000-0  10000-3 0   391
2 23581 008.8340 051.7651 0006130 059.8122 300.2094 00.98799819 67096
0 GOES 9
1 23581U 95025A   13293.77090948 -.00000104  00000-0  10000-3 0   409
2 23581 008.8361 051.7537 0005998 060.6418 299.3775 00.98799367 67105
0 GOES 9
1 23581U 95025A   13294.78300473 -.00000071  00000-0  10000-3 0   412
2 23581 008.8381 051.7426 0005777 061.6789 298.3343 00.98798950 67119
